NORAD_CAT_ID,OBJECT_NAME,OBJECT_TYPE,EPOCH,MEAN_MOTION,ECCENTRICITY,INCLINATION,RA_OF_ASC_NODE,ARG_OF_PERICENTER,MEAN_ANOMALY,BSTAR,MEAN_MOTION_DOT,MEAN_MOTION_DDOT,TLE_LINE0,TLE_LINE1,TLE_LINE2,SEMIMAJOR_AXIS,PERIOD,APOGEE,PERIGEE,DECAYED
55646.0,STARLINK-5104,PAYLOAD,2023-10-22 21:54:48,14.98282326,0.0002778,70.0017,215.0876,272.2334,87.8507,0.0002935,3.406e-05,0.0,0 STARLINK-5104,1 55646U 23021U   23295.91306502  .00003406  00000-0  29350-3 0  9996,2 55646  70.0017 215.0876 0002778 272.2334  87.8507 14.98282326 38651,6950.34,96.11,574.136,570.275,0.0
55646.0,STARLINK-5104,PAYLOAD,2023-10-23 04:19:20,14.98322232,0.0002299,70.0015,214.414,260.0618,100.0282,5.0444e-05,5.09e-06,0.0,0 STARLINK-5104,1 55646U 23021U   23296.18009425  .00000509  00000-0  50444-4 0  9990,2 55646  70.0015 214.4140 0002299 260.0618 100.0282 14.98322232 38394,6950.217,96.107,573.68,570.484,0.0
55646.0,STARLINK-5104,PAYLOAD,2023-10-23 21:56:48,14.98330784,0.0003041,70.0015,212.5631,272.6424,87.4387,-9.8234e-05,-1.265e-05,0.0,0 STARLINK-5104,1 55646U 23021U   23296.91445352 -.00001265  00000-0 -98234-4 0  9995,2 55646  70.0015 212.5631 0003041 272.6424  87.4387 14.98330784 38809,6950.19,96.107,574.169,569.942,0.0
55646.0,STARLINK-5104,PAYLOAD,2023-10-24 04:21:20,14.98337552,0.0002689,70.0014,211.889,269.9476,90.1374,-6.3707e-05,-8.53e-06,0.0,0 STARLINK-5104,1 55646U 23021U   23297.18148791 -.00000853  00000-0 -63707-4 0  9991,2 55646  70.0014 211.8890 0002689 269.9476  90.1374 14.98337552 38548,6950.17,96.107,573.903,570.166,0.0
55646.0,STARLINK-5104,PAYLOAD,2023-10-24 12:22:00,14.98340882,0.0002748,70.0018,211.048,283.1906,76.8946,-0.00010049,-1.292e-05,0.0,0 STARLINK-5104,1 55646U 23021U   23297.51528615 -.00001292  00000-0 -10049-3 0  9993,2 55646  70.0018 211.0480 0002748 283.1906  76.8946 14.98340882 38895,6950.159,96.106,573.934,570.114,0.0
55646.0,STARLINK-5104,PAYLOAD,2023-10-25 22:00:50,14.98331492,0.0002649,70.0018,207.5135,275.9786,84.1071,-3.0055e-05,-4.52e-06,0.0,0 STARLINK-5104,1 55646U 23021U   23298.91724930 -.00000452  00000-0 -30055-4 0  9993,2 55646  70.0018 207.5135 0002649 275.9786  84.1071 14.98331492 38806,6950.188,96.107,573.894,570.212,0.0
55646.0,STARLINK-5104,PAYLOAD,2023-10-26 04:25:22,14.98332346,0.0002538,70.0022,206.8424,271.4798,88.607,-1.9662e-05,-3.28e-06,0.0,0 STARLINK-5104,1 55646U 23021U   23299.18428758 -.00000328  00000-0 -19662-4 0  9995,2 55646  70.0022 206.8424 0002538 271.4798  88.6070 14.98332346 39140,6950.186,96.107,573.815,570.287,0.0
55646.0,STARLINK-5104,PAYLOAD,2023-10-26 20:26:42,14.9832512,0.0002589,70.0021,205.1593,271.4488,88.6375,0.00015681,1.778e-05,0.0,0 STARLINK-5104,1 55646U 23021U   23299.85188514  .00001778  00000-0  15681-3 0  9996,2 55646  70.0021 205.1593 0002589 271.4488  88.6375 14.98325120 39241,6950.208,96.107,573.872,570.274,0.0
55646.0,STARLINK-5104,PAYLOAD,2023-10-27 04:27:22,14.98343164,0.0002707,70.0011,204.3151,272.0065,88.0784,-1.8227e-05,-3.1e-06,0.0,0 STARLINK-5104,1 55646U 23021U   23300.18567611 -.00000310  00000-0 -18227-4 0  9997,2 55646  70.0011 204.3151 0002707 272.0065  88.0784 14.98343164 38998,6950.152,96.106,573.899,570.136,0.0
55646.0,STARLINK-5104,PAYLOAD,2023-10-27 10:51:54,14.98368278,0.0002631,70.0022,203.6407,281.0807,79.0056,-0.000615,-7.43e-05,0.0,0 STARLINK-5104,1 55646U 23021U   23300.45271227 -.00007430  00000-0 -61500-3 0  9993,2 55646  70.0022 203.6407 0002631 281.0807  79.0056 14.98368278 39037,6950.075,96.105,573.768,570.111,0.0
55646.0,STARLINK-5104,PAYLOAD,2023-10-27 17:16:27,14.98328423,0.0002627,70.0013,202.9714,266.0298,94.056,-4.6118e-05,-6.43e-06,0.0,0 STARLINK-5104,1 55646U 23021U   23300.71976525 -.00000643  00000-0 -46118-4 0  9993,2 55646  70.0013 202.9714 0002627 266.0298  94.0560 14.98328423 39071,6950.198,96.107,573.889,570.237,0.0
55646.0,STARLINK-5104,PAYLOAD,2023-10-27 22:04:52,14.98326413,0.0002623,70.0016,202.4666,266.5421,93.5438,-6.0687e-05,-8.17e-06,0.0,0 STARLINK-5104,1 55646U 23021U   23300.92004735 -.00000817  00000-0 -60687-4 0  9991,2 55646  70.0016 202.4666 0002623 266.5421  93.5438 14.98326413 39406,6950.204,96.107,573.892,570.246,0.0
55646.0,STARLINK-5104,PAYLOAD,2023-10-28 10:53:56,14.98326994,0.0002588,70.0011,201.1177,277.2767,82.8098,-9.8109e-05,-1.263e-05,0.0,0 STARLINK-5104,1 55646U 23021U   23301.45412922 -.00001263  00000-0 -98109-4 0  9997,2 55646  70.0011 201.1177 0002588 277.2767  82.8098 14.98326994 39481,6950.202,96.107,573.866,570.268,0.0
55646.0,STARLINK-5104,PAYLOAD,2023-10-28 20:30:45,14.98327951,0.0002882,70.0004,200.1083,271.3066,88.7763,-0.00010966,-1.401e-05,0.0,0 STARLINK-5104,1 55646U 23021U   23301.85468931 -.00001401  00000-0 -10966-3 0  9990,2 55646  70.0004 200.1083 0002882 271.3066  88.7763 14.98327951 39244,6950.199,96.107,574.067,570.061,0.0
55646.0,STARLINK-5104,PAYLOAD,2023-10-28 22:06:53,14.98329433,0.0002885,70.0001,199.9405,271.9338,88.1491,-0.00010764,-1.377e-05,0.0,0 STARLINK-5104,1 55646U 23021U   23301.92144847 -.00001377  00000-0 -10764-3 0  9993,2 55646  70.0001 199.9405 0002885 271.9338  88.1491 14.98329433 39558,6950.195,96.107,574.065,570.055,0.0
55646.0,STARLINK-5104,PAYLOAD,2023-10-29 02:55:16,14.98333841,0.0002792,70.0003,199.4348,270.9575,89.1264,-2.8175e-05,-4.29e-06,0.0,0 STARLINK-5104,1 55646U 23021U   23302.12172318 -.00000429  00000-0 -28175-4 0  9993,2 55646  70.0003 199.4348 0002792 270.9575  89.1264 14.98333841 39287,6950.181,96.107,573.987,570.106,0.0
55646.0,STARLINK-5104,PAYLOAD,2023-10-29 10:55:57,14.98328098,0.0002748,70.0006,198.5925,266.9756,93.1089,-1.3135e-05,-2.5e-06,0.0,0 STARLINK-5104,1 55646U 23021U   23302.45552625 -.00000250  00000-0 -13135-4 0  9994,2 55646  70.0006 198.5925 0002748 266.9756  93.1089 14.98328098 39635,6950.199,96.107,573.974,570.154,0.0
55646.0,STARLINK-5104,PAYLOAD,2023-10-29 20:32:45,14.98323646,0.0002833,69.9999,197.5832,269.4268,90.6567,6.597e-05,6.94e-06,0.0,0 STARLINK-5104,1 55646U 23021U   23302.85608736  .00000694  00000-0  65970-4 0  9997,2 55646  69.9999 197.5832 0002833 269.4268  90.6567 14.98323646 39390,6950.213,96.107,574.047,570.109,0.0
55646.0,STARLINK-5104,PAYLOAD,2023-10-29 22:08:54,14.98321254,0.0002882,70.0001,197.4145,269.4941,90.5888,9.2053e-05,1.005e-05,0.0,0 STARLINK-5104,1 55646U 23021U   23302.92284843  .00001005  00000-0  92053-4 0  9993,2 55646  70.0001 197.4145 0002882 269.4941  90.5888 14.98321254 39708,6950.22,96.108,574.088,570.082,0.0
55646.0,STARLINK-5104,PAYLOAD,2023-10-30 20:34:47,14.98325863,0.0002745,70.0008,195.0582,271.1284,88.9561,1.7675e-05,1.18e-06,0.0,0 STARLINK-5104,1 55646U 23021U   23303.85748951  .00000118  00000-0  17675-4 0  9992,2 55646  70.0008 195.0582 0002745 271.1284  88.9561 14.98325863 39543,6950.206,96.107,573.979,570.163,0.0
55646.0,STARLINK-5104,PAYLOAD,2023-10-30 22:10:55,14.98325314,0.0002715,70.0006,194.8903,272.2849,87.7999,1.6583e-05,1.05e-06,0.0,0 STARLINK-5104,1 55646U 23021U   23303.92425011  .00000105  00000-0  16583-4 0  9992,2 55646  70.0006 194.8903 0002715 272.2849  87.7999 14.98325314 39858,6950.207,96.107,573.959,570.185,0.0
55646.0,STARLINK-5104,PAYLOAD,2023-10-31 02:59:19,14.98328032,0.0002814,70.0005,194.3853,272.1613,87.9224,8.3643e-05,9.05e-06,0.0,0 STARLINK-5104,1 55646U 23021U   23304.12452678  .00000905  00000-0  83643-4 0  9993,2 55646  70.0005 194.3853 0002814 272.1613  87.9224 14.98328032 39880,6950.199,96.107,574.02,570.108,0.0
55646.0,STARLINK-5104,PAYLOAD,2023-10-31 20:36:47,14.98329037,0.0002852,70.0009,192.5344,272.8543,87.229,3.1395e-05,2.82e-06,0.0,0 STARLINK-5104,1 55646U 23021U   23304.85888739  .00000282  00000-0  31395-4 0  9999,2 55646  70.0009 192.5344 0002852 272.8543  87.2290 14.98329037 39691,6950.196,96.107,574.043,570.079,0.0
55646.0,STARLINK-5104,PAYLOAD,2023-10-31 22:12:55,14.98330312,0.0002744,70.0008,192.3656,269.8633,90.2211,4.0126e-05,3.86e-06,0.0,0 STARLINK-5104,1 55646U 23021U   23304.92564617  .00000386  00000-0  40126-4 0  9990,2 55646  70.0008 192.3656 0002744 269.8633  90.2211 14.98330312 40002,6950.192,96.107,573.964,570.15,0.0
55646.0,STARLINK-5104,PAYLOAD,2023-11-01 03:01:19,14.98352519,0.0002438,70.0012,191.8606,271.8649,88.2231,-0.00027294,-3.35e-05,0.0,0 STARLINK-5104,1 55646U 23021U   23305.12591925 -.00003350  00000-0 -27294-3 0  9991,2 55646  70.0012 191.8606 0002438 271.8649  88.2231 14.98352519 39736,6950.123,96.106,573.683,570.294,0.0
55646.0,STARLINK-5104,PAYLOAD,2023-11-01 09:25:51,14.98343878,0.0002735,70.0011,191.1873,267.9388,92.1458,-0.00017511,-2.182e-05,0.0,0 STARLINK-5104,1 55646U 23021U   23305.39296130 -.00002182  00000-0 -17511-3 0  9993,2 55646  70.0011 191.1873 0002735 267.9388  92.1458 14.98343878 39777,6950.15,96.106,573.916,570.114,0.0
55646.0,STARLINK-5104,PAYLOAD,2023-11-01 22:14:57,14.98325667,0.0002727,70.0005,189.84,264.6518,95.433,-5.3617e-05,-7.33e-06,0.0,0 STARLINK-5104,1 55646U 23021U   23305.92704895 -.00000733  00000-0 -53617-4 0  9992,2 55646  70.0005 189.8400 0002727 264.6518  95.4330 14.98325667 40155,6950.206,96.107,573.967,570.176,0.0
55646.0,STARLINK-5104,PAYLOAD,2023-11-02 01:27:12,14.98329529,0.0002514,70.0011,189.5034,263.833,96.2543,8.5125e-05,9.23e-06,0.0,0 STARLINK-5104,1 55646U 23021U   23306.06056312  .00000923  00000-0  85125-4 0  9990,2 55646  70.0011 189.5034 0002514 263.8330  96.2543 14.98329529 39872,6950.194,96.107,573.807,570.312,0.0
55646.0,STARLINK-5104,PAYLOAD,2023-11-02 09:27:52,14.98355451,0.0002392,70.0013,188.6617,280.5665,79.5225,-0.00045415,-5.511e-05,0.0,0 STARLINK-5104,1 55646U 23021U   23306.39435985 -.00005511  00000-0 -45415-3 0  9990,2 55646  70.0013 188.6617 0002392 280.5665  79.5225 14.98355451 39922,6950.114,96.105,573.642,570.317,0.0
55646.0,STARLINK-5104,PAYLOAD,2023-11-02 20:40:49,14.98329962,0.0002696,70.0009,187.4852,267.8439,92.2412,-5.354e-05,-7.32e-06,0.0,0 STARLINK-5104,1 55646U 23021U   23306.86168583 -.00000732  00000-0 -53540-4 0  9998,2 55646  70.0009 187.4852 0002696 267.8439  92.2412 14.98329962 39994,6950.193,96.107,573.932,570.184,0.0
